"{\n    \"CCSDS_OMM_VERS\": \"2.0\",\n    \"COMMENT\": \"GENERATED VIA SPACE-TRACK.ORG API\",\n    \"CREATION_DATE\": \"2025-08-29T09:54:54\",\n    \"ORIGINATOR\": \"18 SPCS\",\n    \"OBJECT_NAME\": \"GALILEO 12 (269)\",\n    \"OBJECT_ID\": \"2015-079A\",\n    \"CENTER_NAME\": \"EARTH\",\n    \"REF_FRAME\": \"TEME\",\n    \"TIME_SYSTEM\": \"UTC\",\n    \"MEAN_ELEMENT_THEORY\": \"SGP4\",\n    \"EPOCH\": \"2025-08-28T22:05:07.725984\",\n    \"MEAN_MOTION\": \"1.7047400548\",\n    \"ECCENTRICITY\": \"0.00037381519\",\n    \"INCLINATION\": \"55.645917\",\n    \"RA_OF_ASC_NODE\": \"109.28638\",\n    \"ARG_OF_PERICENTER\": \"352.95906\",\n    \"MEAN_ANOMALY\": \"7.1248562\",\n    \"EPHEMERIS_TYPE\": \"0\",\n    \"CLASSIFICATION_TYPE\": \"U\",\n    \"NORAD_CAT_ID\": \"41174\",\n    \"ELEMENT_SET_NO\": \"999\",\n    \"REV_AT_EPOCH\": \"5979\",\n    \"BSTAR\": \"0\",\n    \"MEAN_MOTION_DOT\": \"-0.000000058661\",\n    \"MEAN_MOTION_DDOT\": \"0\",\n    \"TLE_LINE0\": \"0 GALILEO 12 (269)\",\n    \"TLE_LINE1\": \"1 41174U 15079A   25240.92022831 -.00000006  00000-0  00000-0 0  9996\",\n    \"TLE_LINE2\": \"2 41174  55.6459 109.2864 0003738 352.9591   7.1249  1.70474005 59799\",\n    \"SEMIMAJOR_AXIS\": \"29600.319\",\n    \"PERIOD\": \"844.704\",\n    \"APOAPSIS\": \"23233.249\",\n    \"PERIAPSIS\": \"23211.119\",\n    \"OBJECT_TYPE\": \"PAYLOAD\",\n    \"DECAYED\": \"0\"\n}"